{"type": "FeatureCollection", "features": [ {"type": "Feature", "properties": {"norad_id": 36279, "name": "FENGYUN 1C DEB", "group": "fengyun-1c-debris", "lat": 81.17809975319226, "lon": -131.0091015968408, "alt_km": 813.4646142809279, "timestamp": "2025-12-21T05:44:51.874316+00:00", "meta": {"OBJECT_NAME": "FENGYUN 1C DEB", "OBJECT_ID": "1999-025DXG", "EPOCH": "2025-12-18T17:54:37.410912", "MEAN_MOTION": 14.14731224, "ECCENTRICITY": 0.00627999, "INCLINATION": 98.5619, "RA_OF_ASC_NODE": 330.5051, "ARG_OF_PERICENTER": 38.3963, "MEAN_ANOMALY": 322.1656, "EPHEMERIS_TYPE": 0, "CLASSIFICATION_TYPE": "U", "NORAD_CAT_ID": 36279, "ELEMENT_SET_NO": 999, "REV_AT_EPOCH": 89124, "BSTAR": 0.00011213671, "MEAN_MOTION_DOT": 1.78e-06, "MEAN_MOTION_DDOT": 0}, "tle": {"line1": "1 36279U 99025DXG 25352.74626633  .00000178  00000+0  11214-3 0  9993", "line2": "2 36279  98.5619 330.5051 0062799  38.3963 322.1656 14.14731224891247"}}, "geometry": {"type": "Point", "coordinates": [-131.0091015968408, 81.17809975319226]}}, {"type": "Feature", "properties": {"norad_id": 36280, "name": "FENGYUN 1C DEB", "group": "fengyun-1c-debris", "lat": -22.796989041596085, "lon": 27.729860731408472, "alt_km": 845.6631223737377, "timestamp": "2025-12-21T05:44:51.874326+00:00", "meta": {"OBJECT_NAME": "FENGYUN 1C DEB", "OBJECT_ID": "1999-025DXH", "EPOCH": "2025-12-20T20:29:20.214816", "MEAN_MOTION": 14.09762014, "ECCENTRICITY": 0.00628036, "INCLINATION": 98.7661, "RA_OF_ASC_NODE": 23.6358, "ARG_OF_PERICENTER": 42.5418, "MEAN_ANOMALY": 138.3217, "EPHEMERIS_TYPE": 0, "CLASSIFICATION_TYPE": "U", "NORAD_CAT_ID": 36280, "ELEMENT_SET_NO": 999, "REV_AT_EPOCH": 86468, "BSTAR": 0.00065706683, "MEAN_MOTION_DOT": 1.133e-05, "MEAN_MOTION_DDOT": 0}, "tle": {"line1": "1 36280U 99025DXH 25354.85370619  .00001133  00000+0  65707-3 0  9997", "line2": "2 36280  98.7661  23.6358 0062803  42.5418 138.3217 14.09762014864689"}}, "geometry": {"type": "Point", "coordinates": [27.729860731408472, -22.796989041596085]}}, {"type": "Feature", "properties": {"norad_id": 36281, "name": "FENGYUN 1C DEB", "group": "fengyun-1c-debris", "lat": -29.258900352914296, "lon": 91.49665033410999, "alt_km": 1145.764259524547, "timestamp": "2025-12-21T05:44:51.874338+00:00", "meta": {"OBJECT_NAME": "FENGYUN 1C DEB", "OBJECT_ID": "1999-025DXJ", "EPOCH": "2025-12-20T00:30:26.383680", "MEAN_MOTION": 13.60294135, "ECCENTRICITY": 0.02913999, "INCLINATION": 99.2595, "RA_OF_ASC_NODE": 275.5857, "ARG_OF_PERICENTER": 92.0584, "MEAN_ANOMALY": 271.3952, "EPHEMERIS_TYPE": 0, "CLASSIFICATION_TYPE": "U", "NORAD_CAT_ID": 36281, "ELEMENT_SET_NO": 999, "REV_AT_EPOCH": 84616, "BSTAR": 0.00281607, "MEAN_MOTION_DOT": 2.757e-05, "MEAN_MOTION_DDOT": 0}, "tle": {"line1": "1 36281U 99025DXJ 25354.02113870  .00002757  00000+0  28161-2 0  9996", "line2": "2 36281  99.2595 275.5857 0291399  92.0584 271.3952 13.60294135846169"}}, "geometry": {"type": "Point", "coordinates": [91.49665033410999, -29.258900352914296]}}, {"type": "Feature", "properties": {"norad_id": 36283, "name": "FENGYUN 1C DEB", "group": "fengyun-1c-debris", "lat": -4.564363735988451, "lon": 141.45453308691924, "alt_km": 594.0887220898139, "timestamp": "2025-12-21T05:44:51.874348+00:00", "meta": {"OBJECT_NAME": "FENGYUN 1C DEB", "OBJECT_ID": "1999-025DXL", "EPOCH": "2025-12-15T15:02:17.579040", "MEAN_MOTION": 15.06429973, "ECCENTRICITY": 0.00674448, "INCLINATION": 99.4211, "RA_OF_ASC_NODE": 315.3599, "ARG_OF_PERICENTER": 41.5581, "MEAN_ANOMALY": 319.0739, "EPHEMERIS_TYPE": 0, "CLASSIFICATION_TYPE": "U", "NORAD_CAT_ID": 36283, "ELEMENT_SET_NO": 999, "REV_AT_EPOCH": 66709, "BSTAR": 0.00125131, "MEAN_MOTION_DOT": 0.0001938, "MEAN_MOTION_DDOT": 0}, "tle": {"line1": "1 36283U 99025DXL 25349.62659235  .00019380  00000+0  12513-2 0  9992", "line2": "2 36283  99.4211 315.3599 0067444  41.5581 319.0739 15.06429973667090"}}, "geometry": {"type": "Point", "coordinates": [141.45453308691924, -4.564363735988451]}}, {"type": "Feature", "properties": {"norad_id": 36644, "name": "FENGYUN 1C DEB", "group": "fengyun-1c-debris", "lat": -1.3617855599979014, "lon": 132.86368931322107, "alt_km": 1238.4603443161513, "timestamp": "2025-12-21T05:44:51.874358+00:00", "meta": {"OBJECT_NAME": "FENGYUN 1C DEB", "OBJECT_ID": "1999-025DXN", "EPOCH": "2025-12-20T03:15:14.582880", "MEAN_MOTION": 13.5921712, "ECCENTRICITY": 0.0285778, "INCLINATION": 98.4233, "RA_OF_ASC_NODE": 131.7114, "ARG_OF_PERICENTER": 160.4918, "MEAN_ANOMALY": 200.7431, "EPHEMERIS_TYPE": 0, "CLASSIFICATION_TYPE": "U", "NORAD_CAT_ID": 36644, "ELEMENT_SET_NO": 999, "REV_AT_EPOCH": 61668, "BSTAR": 0.0010197403, "MEAN_MOTION_DOT": 9.49e-06, "MEAN_MOTION_DDOT": 0}, "tle": {"line1": "1 36644U 99025DXN 25354.13558545  .00000949  00000+0  10197-2 0  9994", "line2": "2 36644  98.4233 131.7114 0285778 160.4918 200.7431 13.59217120616683"}}, "geometry": {"type": "Point", "coordinates": [132.86368931322107, -1.3617855599979014]}}, {"type": "Feature", "properties": {"norad_id": 36647, "name": "FENGYUN 1C DEB", "group": "fengyun-1c-debris", "lat": -14.746394198909599, "lon": 134.64367180141912, "alt_km": 874.1062240491319, "timestamp": "2025-12-21T05:44:51.874369+00:00", "meta": {"OBJECT_NAME": "FENGYUN 1C DEB", "OBJECT_ID": "1999-025DXR", "EPOCH": "2025-12-17T15:22:01.202880", "MEAN_MOTION": 13.88856712, "ECCENTRICITY": 0.02401846, "INCLINATION": 96.1202, "RA_OF_ASC_NODE": 130.6548, "ARG_OF_PERICENTER": 285.5466, "MEAN_ANOMALY": 71.9303, "EPHEMERIS_TYPE": 0, "CLASSIFICATION_TYPE": "U", "NORAD_CAT_ID": 36647, "ELEMENT_SET_NO": 999, "REV_AT_EPOCH": 30480, "BSTAR": 0.0022455743, "MEAN_MOTION_DOT": 3.394e-05, "MEAN_MOTION_DDOT": 0}, "tle": {"line1": "1 36647U 99025DXR 25351.64029170  .00003394  00000+0  22456-2 0  9995", "line2": "2 36647  96.1202 130.6548 0240184 285.5466  71.9303 13.88856712304807"}}, "geometry": {"type": "Point", "coordinates": [134.64367180141912, -14.746394198909599]}}, {"type": "Feature", "properties": {"norad_id": 36652, "name": "FENGYUN 1C DEB", "group": "fengyun-1c-debris", "lat": 63.09080574313661, "lon": -84.3903804103436, "alt_km": 840.258546714429, "timestamp": "2025-12-21T05:44:51.874380+00:00", "meta": {"OBJECT_NAME": "FENGYUN 1C DEB", "OBJECT_ID": "1999-025DXW", "EPOCH": "2025-12-20T12:19:49.526688", "MEAN_MOTION": 14.22867113, "ECCENTRICITY": 0.00507663, "INCLINATION": 98.9413, "RA_OF_ASC_NODE": 76.802, "ARG_OF_PERICENTER": 329.9147, "MEAN_ANOMALY": 29.9117, "EPHEMERIS_TYPE": 0, "CLASSIFICATION_TYPE": "U", "NORAD_CAT_ID": 36652, "ELEMENT_SET_NO": 999, "REV_AT_EPOCH": 64435, "BSTAR": 0.0011825646, "MEAN_MOTION_DOT": 2.646e-05, "MEAN_MOTION_DDOT": 0}, "tle": {"line1": "1 36652U 99025DXW 25354.51376767  .00002646  00000+0  11826-2 0  9995", "line2": "2 36652  98.9413  76.8020 0050766 329.9147  29.9117 14.22867113644356"}}, "geometry": {"type": "Point", "coordinates": [-84.3903804103436, 63.09080574313661]}}, {"type": "Feature", "properties": {"norad_id": 36657, "name": "FENGYUN 1C DEB", "group": "fengyun-1c-debris", "lat": 16.53902608402249, "lon": -29.795840785992, "alt_km": 714.5736611769607, "timestamp": "2025-12-21T05:44:51.874390+00:00", "meta": {"OBJECT_NAME": "FENGYUN 1C DEB", "OBJECT_ID": "1999-025DYB", "EPOCH": "2025-12-15T16:17:35.899008", "MEAN_MOTION": 14.65547343, "ECCENTRICITY": 0.01057726, "INCLINATION": 99.4128, "RA_OF_ASC_NODE": 141.0178, "ARG_OF_PERICENTER": 58.1622, "MEAN_ANOMALY": 302.9822, "EPHEMERIS_TYPE": 0, "CLASSIFICATION_TYPE": "U", "NORAD_CAT_ID": 36657, "ELEMENT_SET_NO": 999, "REV_AT_EPOCH": 66299, "BSTAR": 0.00037231163, "MEAN_MOTION_DOT": 2.126e-05, "MEAN_MOTION_DDOT": 0}, "tle": {"line1": "1 36657U 99025DYB 25349.67888772  .00002126  00000+0  37231-3 0  9997", "line2": "2 36657  99.4128 141.0178 0105772  58.1622 302.9822 14.65547343662990"}}, "geometry": {"type": "Point", "coordinates": [-29.795840785992, 16.53902608402249]}}, {"type": "Feature", "properties": {"norad_id": 36659, "name": "FENGYUN 1C DEB", "group": "fengyun-1c-debris", "lat": -72.78621397932487, "lon": 33.30684130925129, "alt_km": 1005.8365018410759, "timestamp": "2025-12-21T05:44:51.874400+00:00", "meta": {"OBJECT_NAME": "FENGYUN 1C DEB", "OBJECT_ID": "1999-025DYD", "EPOCH": "2025-12-18T07:09:04.054176", "MEAN_MOTION": 13.87384482, "ECCENTRICITY": 0.01357919, "INCLINATION": 99.8541, "RA_OF_ASC_NODE": 356.081, "ARG_OF_PERICENTER": 60.2917, "MEAN_ANOMALY": 301.1674, "EPHEMERIS_TYPE": 0, "CLASSIFICATION_TYPE": "U", "NORAD_CAT_ID": 36659, "ELEMENT_SET_NO": 999, "REV_AT_EPOCH": 60502, "BSTAR": 0.00061832075, "MEAN_MOTION_DOT": 7.35e-06, "MEAN_MOTION_DDOT": 0}, "tle": {"line1": "1 36659U 99025DYD 25352.29796359  .00000735  00000+0  61832-3 0  9998", "line2": "2 36659  99.8541 356.0810 0135791  60.2917 301.1674 13.87384482605024"}}, "geometry": {"type": "Point", "coordinates": [33.30684130925129, -72.78621397932487]}}, {"type": "Feature", "properties": {"norad_id": 36664, "name": "FENGYUN 1C DEB", "group": "fengyun-1c-debris", "lat": 64.05702065474942, "lon": 1.4552471104556595, "alt_km": 702.5991758527716, "timestamp": "2025-12-21T05:44:51.874410+00:00", "meta": {"OBJECT_NAME": "FENGYUN 1C DEB", "OBJECT_ID": "1999-025DYJ", "EPOCH": "2025-12-20T07:25:54.989472", "MEAN_MOTION": 14.1795977, "ECCENTRICITY": 0.01735704, "INCLINATION": 98.6034, "RA_OF_ASC_NODE": 18.6846, "ARG_OF_PERICENTER": 78.0372, "MEAN_ANOMALY": 284.0202, "EPHEMERIS_TYPE": 0, "CLASSIFICATION_TYPE": "U", "NORAD_CAT_ID": 36664, "ELEMENT_SET_NO": 999, "REV_AT_EPOCH": 63858, "BSTAR": 7.0633235e-05, "MEAN_MOTION_DOT": 1.26e-06, "MEAN_MOTION_DDOT": 0}, "tle": {"line1": "1 36664U 99025DYJ 25354.30966423  .00000126  00000+0  70633-4 0  9993", "line2": "2 36664  98.6034  18.6846 0173570  78.0372 284.0202 14.17959770638588"}}, "geometry": {"type": "Point", "coordinates": [1.4552471104556595, 64.05702065474942]}}]}